{
  "type": "FeatureCollection",
  "name": "Kazakhstan_Independence_1990_1991",
  "features": [
    {
      "type": "Feature",
      "properties": {
        "id": "state_sovereignty_declaration_1990",
        "title": "Қазақ КСР-нің Мемлекеттік егемендігі туралы Декларация",
        "role": "Тәуелсіздікке бастар құқықтық негіз",
        "description": "1991 жылғы 25 қазанда Қазақ Кеңестік Социалистік Республикасының Жоғарғы Кеңесі «Қазақ КСР-нің мемлекеттік егемендігі туралы Декларацияны» қабылдады. Бұл құжат республиканың аумақтық тұтастығын, заңдарының үстемдігін және экономикалық дербестігін жариялап, болашақ тәуелсіз Қазақстан мемлекетінің құқықтық іргетасын қалады.",
        "date": "1991 жыл 25 қазан",
        "notes": "Бұл күн кейіннен Республика күні ретінде атап өтілді. 2022 жылдан бастап Республика күні ұлттық мереке мәртебесіне ие болды.",
        "images": [
          "https://el.kz/storage/storage/element/2023/10/24/mainphoto/73785/1200x700_ToHr4IkkzCdgBu0VNbZKl2PgAVpwraE9tL2HzcrS.jpg"
        ]
      },
      "geometry": {
        "type": "Point",
        "coordinates": [76.9433, 43.2559]
      }
    }
  ]
}
