{
  "type": "FeatureCollection",
  "name": "Jeltoqsan_16-17_December_1986_Almaty",
  "features": [
    {
      "type": "Feature",
      "properties": {
        "id": "republik_square",
        "title": "Республика алаңы (сол кездегі Брежнев алаңы)",
        "role": "Негізгі наразылық алаңы / шеру бағыты",
        "description": "1986 жылғы 17 желтоқсандағы студенттік шерудің басталған және жаппай ұлғайған негізгі орны. 1986 жылы Брежнев алаңы деп аталған, қазіргі атауы — Республика алаңы. Студенттер осы жерден Орталық Комитет ғимаратына қарай шерумен қозғалды.",
        "date": "1986 жылғы 16–19 желтоқсан (негізгі шиеленіс 16–17 желтоқсан)",
        "notes": "Алаңда Орталық Комитет ғимараты орналасқан; дәл осы жерде ішкі әскерлер мен ОМОН-ның қатысуымен қақтығыстардың негізгі ошағы қалыптасты.",
        "images": [
          "/img/zheltoksan86.jpg",
          "https://img.inform.kz/kazinform-photobank/media/2024-12-16/84c4944d-37ba-414b-bc3c-282957c359b9.jpeg"
        ],
        "sources": [
          "https://en.wikipedia.org/wiki/Jeltoqsan",
          "https://en.wikipedia.org/wiki/Republic_Square%2C_Almaty"
        ]
      },
      "geometry": {
        "type": "Point",
        "coordinates": [76.94528, 43.23833]
      }
    },

    {
      "type": "Feature",
      "properties": {
        "id": "central_committee_building",
        "title": "Орталық Комитет ғимараты (сол кездегі ҚКП)",
        "role": "Шерудің негізгі бағыты; республикалық билік орталығы",
        "description": "Брежнев (қазіргі Республика) алаңының оңтүстік жағында орналасқан Қазақстан Компартиясы Орталық Комитетінің ғимараты. Наразылық білдірушілердің негізгі бағыты осы ғимаратқа бағытталды және билік қауіпсіздік күштерін осы жерде шоғырландырды. Ғимарат республика басшылығын білдіретін символ болды.",
        "date": "1986 жылғы 16–19 желтоқсан",
        "notes": "Геннадий Колбиннің тағайындалуынан кейін шерушілер осы ғимаратқа бет алды; кейін ғимарат ішкі әскерлер, милиция және ОМОН тарапынан қоршауға алынды.",
        "images": [
          "https://pics.livejournal.com/fernando_85/pic/00004y46/s640x480"
        ],
        "sources": [
          "https://en.wikipedia.org/wiki/Jeltoqsan",
          "https://www.rferl.org/"
        ]
      },
      "geometry": {
        "type": "Point",
        "coordinates": [76.9450, 43.2379]
      }
    },

    {
      "type": "Feature",
      "properties": {
        "id": "zheltoksan_monument",
        "title": "Желтоқсан құрбандарына арналған ескерткіш («Тәуелсіздік таңы»)",
        "role": "Қаза тапқандар мен қозғалысты еске алу мемориалы",
        "description": "1986 жылғы Желтоқсан оқиғасы кезінде қаза тапқан және зардап шеккендерге арналған мемориал. «Тәуелсіздік таңы» деп те аталады. Республика алаңына жақын, Желтоқсан көшесінің бойында орналасқан.",
        "date": "Ескерткіш 2006 жылғы 18 қыркүйекте ашылды",
        "images": [
          "https://ulan.kazgazeta.kz/media/2021/12/14/7-bet.jpg"
        ],
        "sources": [
          "https://wanderon.in/blogs/zheltoksan-monument-almaty",
          "https://en.wikipedia.org/wiki/Jeltoqsan"
        ]
      },
      "geometry": {
        "type": "Point",
        "coordinates": [76.941679, 43.238729]
      }
    }
  ]
}
